#dV2023  1 19 22  0  0.00000000    1682       CTS   FIT  GFZ
## 2245 424800.00000000    30.00000000 59963 0.9166666666667
+    1   L64  0  0  0  0  0  0  0  0  0  0  0  0  0  0  0  0
+          0  0  0  0  0  0  0  0  0  0  0  0  0  0  0  0  0
+          0  0  0  0  0  0  0  0  0  0  0  0  0  0  0  0  0
+          0  0  0  0  0  0  0  0  0  0  0  0  0  0  0  0  0
+          0  0  0  0  0  0  0  0  0  0  0  0  0  0  0  0  0
++         0  0  0  0  0  0  0  0  0  0  0  0  0  0  0  0  0
++         0  0  0  0  0  0  0  0  0  0  0  0  0  0  0  0  0
++         0  0  0  0  0  0  0  0  0  0  0  0  0  0  0  0  0
++         0  0  0  0  0  0  0  0  0  0  0  0  0  0  0  0  0
++         0  0  0  0  0  0  0  0  0  0  0  0  0  0  0  0  0
%c L  cc GPS ccc cccc cccc cccc cccc ccccc ccccc ccccc ccccc
%c cc cc ccc ccc cccc cccc cccc cccc ccccc ccccc ccccc ccccc
%f  0.0000000  0.000000000  0.00000000000  0.000000000000000
%f  0.0000000  0.000000000  0.00000000000  0.000000000000000
%i    0    0    0    0      0      0      0      0         0
%i    0    0    0    0      0      0      0      0         0
/* CCCCCCCCCCCCCCCCCCCCCCCCCCCCCCCCCCCCCCCCCCCCCCCCCCCCCCCCCCCCCCCCCCCCCCCCCCCCC
/* C                             GFZ RSO-ORBIT                                 C
/* C DOI: https://doi.org/10.5880/GFZ_ORBIT/RSO/L64_G_v02                      C
/* C                                                                           C
/* C DORIS        RMS: not applicable                                          C
/* C GNSS-E Code  RMS: not applicable                                          C
/* C GNSS-E Phase RMS: not applicable                                          C
/* C GNSS-G Code  RMS:  49.797 [cm]   Obs.acc.:     14370 Obs.eli.:      1187  C
/* C GNSS-G Phase RMS:   4.312 [mm]   Obs.acc.:     14370 Obs.eli.:      1187  C
/* C SLR          RMS: not applicable                                          C
/* C                                                                           C
/* CCCCCCCCCCCCCCCCCCCCCCCCCCCCCCCCCCCCCCCCCCCCCCCCCCCCCCCCCCCCCCCCCCCCCCCCCCCCC
*  2023  1 20  6  4 30.00000000
PL64     48.870929   -148.774174   6866.571326  11390.175806
VL64  70825.658696 -27609.977174  -1148.875809 999999.999999
*  2023  1 20  6  5  0.00000000
PL64    261.100617   -231.971868   6859.334855  11390.635329
VL64  70647.698673 -27849.954500  -3675.026138 999999.999999
*  2023  1 20  6  5 30.00000000
PL64    472.678685   -315.842411   6844.525020  11391.094841
VL64  70391.305929 -28058.443367  -6197.325578 999999.999999
*  2023  1 20  6  6  0.00000000
PL64    683.370422   -400.290462   6822.157509  11391.554402
VL64  70056.885146 -28234.866686  -8713.018286 999999.999999
*  2023  1 20  6  6 30.00000000
PL64    892.942455   -485.219004   6792.256268  11392.014097
VL64  69644.925603 -28378.683851 -11219.353984 999999.999999
*  2023  1 20  6  7  0.00000000
PL64   1101.163008   -570.529454   6754.853485  11392.473833
VL64  69156.001657 -28489.391274 -13713.589891 999999.999999
*  2023  1 20  6  7 30.00000000
PL64   1307.802158   -656.121774   6709.989559  11392.933413
VL64  68590.773646 -28566.522758 -16192.995289 999999.999999
*  2023  1 20  6  8  0.00000000
PL64   1512.632087   -741.894585   6657.713059  11393.392998
VL64  67949.984978 -28609.649749 -18654.855732 999999.999999
*  2023  1 20  6  8 30.00000000
PL64   1715.427328   -827.745277   6598.080669  11393.852828
VL64  67234.459394 -28618.382880 -21096.472722 999999.999999
*  2023  1 20  6  9  0.00000000
PL64   1915.965009   -913.570139   6531.157148  11394.312612
VL64  66445.102096 -28592.374499 -23515.164749 999999.999999
*  2023  1 20  6  9 30.00000000
PL64   2114.025093   -999.264476   6457.015267  11394.772310
VL64  65582.900235 -28531.319265 -25908.271581 999999.999999
*  2023  1 20  6 10  0.00000000
PL64   2309.390631  -1084.722743   6375.735740  11395.231976
VL64  64648.921970 -28434.954012 -28273.157679 999999.999999
*  2023  1 20  6 10 30.00000000
PL64   2501.847994  -1169.838669   6287.407150  11395.691538
VL64  63644.315273 -28303.058622 -30607.215311 999999.999999
*  2023  1 20  6 11  0.00000000
PL64   2691.187118  -1254.505387   6192.125855  11396.151087
VL64  62570.306128 -28135.457330 -32907.867479 999999.999999
*  2023  1 20  6 11 30.00000000
PL64   2877.201729  -1338.615575   6089.995895  11396.610579
VL64  61428.197357 -27932.019714 -35172.570476 999999.999999
*  2023  1 20  6 12  0.00000000
PL64   3059.689578  -1422.061583   5981.128890  11397.070116
VL64  60219.367851 -27692.660416 -37398.817220 999999.999999
*  2023  1 20  6 12 30.00000000
PL64   3238.452666  -1504.735573   5865.643917  11397.529612
VL64  58945.270811 -27417.338569 -39584.140422 999999.999999
*  2023  1 20  6 13  0.00000000
PL64   3413.297459  -1586.529654   5743.667397  11397.989019
VL64  57607.431533 -27106.058509 -41726.115145 999999.999999
*  2023  1 20  6 13 30.00000000
PL64   3584.035106  -1667.336015   5615.332957  11398.448397
VL64  56207.445359 -26758.871099 -43822.361070 999999.999999
*  2023  1 20  6 14  0.00000000
PL64   3750.481646  -1747.047070   5480.781294  11398.907914
VL64  54746.976161 -26375.874409 -45870.544965 999999.999999
*  2023  1 20  6 14 30.00000000
PL64   3912.458208  -1825.555596   5340.160034  11399.367017
VL64  53227.754521 -25957.213578 -47868.383066 999999.999999
*  2023  1 20  6 15  0.00000000
PL64   4069.791214  -1902.754878   5193.623576  11399.825540
VL64  51651.576205 -25503.081098 -49813.642710 999999.999999
*  2023  1 20  6 15 30.00000000
PL64   4222.312567  -1978.538850   5041.332937  11400.284364
VL64  50020.301231 -25013.717555 -51704.144803 999999.999999
*  2023  1 20  6 16  0.00000000
PL64   4369.859845  -2052.802240   4883.455589  11400.743544
VL64  48335.852303 -24489.411991 -53537.766976 999999.999999
*  2023  1 20  6 16 30.00000000
PL64   4512.276488  -2125.440716   4720.165280  11401.203002
VL64  46600.212908 -23930.502118 -55312.446712 999999.999999
*  2023  1 20  6 17  0.00000000
PL64   4649.411972  -2196.351033   4551.641853  11401.662721
VL64  44815.424913 -23337.374118 -57026.184801 999999.999999
*  2023  1 20  6 17 30.00000000
PL64   4781.121985  -2265.431175   4378.071049  11402.122716
VL64  42983.585626 -22710.461809 -58677.047865 999999.999999
*  2023  1 20  6 18  0.00000000
PL64   4907.268584  -2332.580499   4199.644309  11402.582644
VL64  41106.845774 -22050.246377 -60263.169806 999999.999999
*  2023  1 20  6 18 30.00000000
PL64   5027.720360  -2397.699878   4016.558569  11403.042398
VL64  39187.408224 -21357.257095 -61782.754746 999999.999999
*  2023  1 20  6 19  0.00000000
PL64   5142.352586  -2460.691843   3829.016041  11403.502086
VL64  37227.524575 -20632.071068 -63234.081624 999999.999999
*  2023  1 20  6 19 30.00000000
PL64   5251.047355  -2521.460729   3637.223984  11403.961776
VL64  35229.490094 -19875.311615 -64615.506315 999999.999999
*  2023  1 20  6 20  0.00000000
PL64   5353.693710  -2579.912807   3441.394475  11404.421371
VL64  33195.640609 -19087.647673 -65925.461462 999999.999999
*  2023  1 20  6 20 30.00000000
PL64   5450.187758  -2635.956424   3241.744177  11404.880665
VL64  31128.351107 -18269.794134 -67162.457437 999999.999999
*  2023  1 20  6 21  0.00000000
PL64   5540.432788  -2689.502141   3038.494102  11405.339152
VL64  29030.033999 -17422.511822 -68325.084748 999999.999999
*  2023  1 20  6 21 30.00000000
PL64   5624.339380  -2740.462871   2831.869367  11405.797587
VL64  26903.136286 -16546.606785 -69412.016963 999999.999999
*  2023  1 20  6 22  0.00000000
PL64   5701.825501  -2788.754008   2622.098940  11406.256428
VL64  24750.135543 -15642.928922 -70422.012825 999999.999999
*  2023  1 20  6 22 30.00000000
PL64   5772.816594  -2834.293562   2409.415385  11406.715543
VL64  22573.536468 -14712.370461 -71353.916489 999999.999999
*  2023  1 20  6 23  0.00000000
PL64   5837.245652  -2877.002283   2194.054606  11407.174760
VL64  20375.869679 -13755.865642 -72206.657531 999999.999999
*  2023  1 20  6 23 30.00000000
PL64   5895.053299  -2916.803785   1976.255588  11407.634119
VL64  18159.690838 -12774.391535 -72979.253804 999999.999999
*  2023  1 20  6 24  0.00000000
PL64   5946.187861  -2953.624681   1756.260120  11408.093476
VL64  15927.577059 -11768.967777 -73670.816350 999999.999999
*  2023  1 20  6 24 30.00000000
PL64   5990.605419  -2987.394700   1534.312519  11408.551321
VL64  13682.120601 -10740.653571 -74280.552622 999999.999999
*  2023  1 20  6 25  0.00000000
PL64   6028.269844  -3018.046806   1310.659331  11409.009536
VL64  11425.923034  -9690.544178 -74807.765383 999999.999999
*  2023  1 20  6 25 30.00000000
PL64   6059.152824  -3045.517299   1085.549058  11409.468704
VL64   9161.592473  -8619.769803 -75251.850208 999999.999999
*  2023  1 20  6 26  0.00000000
PL64   6083.233879  -3069.745924    859.231873  11409.928094
VL64   6891.742531  -7529.495698 -75612.295259 999999.999999
*  2023  1 20  6 26 30.00000000
PL64   6100.500377  -3090.675972    631.959346  11410.386577
VL64   4618.991073  -6420.921665 -75888.683159 999999.999999
*  2023  1 20  6 27  0.00000000
PL64   6110.947543  -3108.254386    403.984155  11410.844957
VL64   2345.957267  -5295.280580 -76080.693785 999999.999999
*  2023  1 20  6 27 30.00000000
PL64   6114.578455  -3122.431852    175.559786  11411.303863
VL64     75.257119  -4153.836371 -76188.105547 999999.999999
*  2023  1 20  6 28  0.00000000
PL64   6111.404029  -3133.162894    -53.059754  11411.762963
VL64  -2190.500230  -2997.882738 -76210.795602 999999.999999
*  2023  1 20  6 28 30.00000000
PL64   6101.442995  -3140.405960   -281.620240  11412.222200
VL64  -4448.716765  -1828.741637 -76148.741330 999999.999999
*  2023  1 20  6 29  0.00000000
PL64   6084.721851  -3144.123503   -509.867531  11412.681435
VL64  -6696.811390   -647.760147 -76002.019636 999999.999999
*  2023  1 20  6 29 30.00000000
PL64   6061.274810  -3144.282050   -737.547861  11413.140757
VL64  -8932.222766    543.691643 -75770.803963 999999.999999
EOF
